<?xml version="1.0"?><gpx version="1.1" creator="TrailRelief"><trk><name>Zermatt Loop</name><trkseg><trkpt lat="46.005000" lon="7.783000"><ele>1900.0</ele><time>2026-07-12T06:00:00Z</time></trkpt><trkpt lat="46.005796" lon="7.783870"><ele>1919.1</ele><time>2026-07-12T06:00:10Z</time></trkpt><trkpt lat="46.006614" lon="7.784717"><ele>1939.7</ele><time>2026-07-12T06:00:20Z</time></trkpt><trkpt lat="46.007453" lon="7.785538"><ele>1961.4</ele><time>2026-07-12T06:00:30Z</time></trkpt><trkpt lat="46.008313" lon="7.786331"><ele>1984.0</ele><time>2026-07-12T06:00:40Z</time></trkpt><trkpt lat="46.009193" lon="7.787092"><ele>2007.1</ele><time>2026-07-12T06:00:50Z</time></trkpt><trkpt lat="46.010091" lon="7.787818"><ele>2030.6</ele><time>2026-07-12T06:01:00Z</time></trkpt><trkpt lat="46.011008" lon="7.788506"><ele>2054.2</ele><time>2026-07-12T06:01:10Z</time></trkpt><trkpt lat="46.011942" lon="7.789154"><ele>2077.5</ele><time>2026-07-12T06:01:20Z</time></trkpt><trkpt lat="46.012892" lon="7.789758"><ele>2100.5</ele><time>2026-07-12T06:01:30Z</time></trkpt><trkpt lat="46.013856" lon="7.790315"><ele>2122.8</ele><time>2026-07-12T06:01:40Z</time></trkpt><trkpt lat="46.014833" lon="7.790824"><ele>2144.4</ele><time>2026-07-12T06:01:50Z</time></trkpt><trkpt lat="46.015823" lon="7.791282"><ele>2165.0</ele><time>2026-07-12T06:02:00Z</time></trkpt><trkpt lat="46.016822" lon="7.791687"><ele>2184.5</ele><time>2026-07-12T06:02:10Z</time></trkpt><trkpt lat="46.017829" lon="7.792036"><ele>2202.8</ele><time>2026-07-12T06:02:20Z</time></trkpt><trkpt lat="46.018843" lon="7.792328"><ele>2219.9</ele><time>2026-07-12T06:02:30Z</time></trkpt><trkpt lat="46.019862" lon="7.792561"><ele>2235.6</ele><time>2026-07-12T06:02:40Z</time></trkpt><trkpt lat="46.020883" lon="7.792733"><ele>2250.1</ele><time>2026-07-12T06:02:50Z</time></trkpt><trkpt lat="46.021906" lon="7.792843"><ele>2263.2</ele><time>2026-07-12T06:03:00Z</time></trkpt><trkpt lat="46.022927" lon="7.792890"><ele>2275.0</ele><time>2026-07-12T06:03:10Z</time></trkpt><trkpt lat="46.023945" lon="7.792872"><ele>2285.6</ele><time>2026-07-12T06:03:20Z</time></trkpt><trkpt lat="46.024958" lon="7.792790"><ele>2295.1</ele><time>2026-07-12T06:03:30Z</time></trkpt><trkpt lat="46.025964" lon="7.792643"><ele>2303.5</ele><time>2026-07-12T06:03:40Z</time></trkpt><trkpt lat="46.026960" lon="7.792429"><ele>2311.1</ele><time>2026-07-12T06:03:50Z</time></trkpt><trkpt lat="46.027945" lon="7.792150"><ele>2317.8</ele><time>2026-07-12T06:04:00Z</time></trkpt><trkpt lat="46.028916" lon="7.791805"><ele>2323.9</ele><time>2026-07-12T06:04:10Z</time></trkpt><trkpt lat="46.029872" lon="7.791394"><ele>2329.4</ele><time>2026-07-12T06:04:20Z</time></trkpt><trkpt lat="46.030810" lon="7.790918"><ele>2334.7</ele><time>2026-07-12T06:04:30Z</time></trkpt><trkpt lat="46.031729" lon="7.790378"><ele>2339.8</ele><time>2026-07-12T06:04:40Z</time></trkpt><trkpt lat="46.032626" lon="7.789775"><ele>2344.8</ele><time>2026-07-12T06:04:50Z</time></trkpt><trkpt lat="46.033500" lon="7.789109"><ele>2350.0</ele><time>2026-07-12T06:05:00Z</time></trkpt><trkpt lat="46.034349" lon="7.788382"><ele>2355.4</ele><time>2026-07-12T06:05:10Z</time></trkpt><trkpt lat="46.035171" lon="7.787596"><ele>2361.3</ele><time>2026-07-12T06:05:20Z</time></trkpt><trkpt lat="46.035964" lon="7.786752"><ele>2367.6</ele><time>2026-07-12T06:05:30Z</time></trkpt><trkpt lat="46.036727" lon="7.785853"><ele>2374.6</ele><time>2026-07-12T06:05:40Z</time></trkpt><trkpt lat="46.037459" lon="7.784899"><ele>2382.2</ele><time>2026-07-12T06:05:50Z</time></trkpt><trkpt lat="46.038159" lon="7.783894"><ele>2390.5</ele><time>2026-07-12T06:06:00Z</time></trkpt><trkpt lat="46.038824" lon="7.782840"><ele>2399.6</ele><time>2026-07-12T06:06:10Z</time></trkpt><trkpt lat="46.039454" lon="7.781739"><ele>2409.4</ele><time>2026-07-12T06:06:20Z</time></trkpt><trkpt lat="46.040048" lon="7.780593"><ele>2419.9</ele><time>2026-07-12T06:06:30Z</time></trkpt><trkpt lat="46.040605" lon="7.779406"><ele>2431.2</ele><time>2026-07-12T06:06:40Z</time></trkpt><trkpt lat="46.041125" lon="7.778180"><ele>2443.0</ele><time>2026-07-12T06:06:50Z</time></trkpt><trkpt lat="46.041607" lon="7.776919"><ele>2455.3</ele><time>2026-07-12T06:07:00Z</time></trkpt><trkpt lat="46.042050" lon="7.775624"><ele>2468.0</ele><time>2026-07-12T06:07:10Z</time></trkpt><trkpt lat="46.042454" lon="7.774299"><ele>2480.9</ele><time>2026-07-12T06:07:20Z</time></trkpt><trkpt lat="46.042820" lon="7.772948"><ele>2493.9</ele><time>2026-07-12T06:07:30Z</time></trkpt><trkpt lat="46.043146" lon="7.771572"><ele>2506.8</ele><time>2026-07-12T06:07:40Z</time></trkpt><trkpt lat="46.043434" lon="7.770176"><ele>2519.3</ele><time>2026-07-12T06:07:50Z</time></trkpt><trkpt lat="46.043683" lon="7.768763"><ele>2531.3</ele><time>2026-07-12T06:08:00Z</time></trkpt><trkpt lat="46.043894" lon="7.767335"><ele>2542.6</ele><time>2026-07-12T06:08:10Z</time></trkpt><trkpt lat="46.044068" lon="7.765895"><ele>2552.8</ele><time>2026-07-12T06:08:20Z</time></trkpt><trkpt lat="46.044205" lon="7.764447"><ele>2561.9</ele><time>2026-07-12T06:08:30Z</time></trkpt><trkpt lat="46.044307" lon="7.762994"><ele>2569.5</ele><time>2026-07-12T06:08:40Z</time></trkpt><trkpt lat="46.044373" lon="7.761538"><ele>2575.4</ele><time>2026-07-12T06:08:50Z</time></trkpt><trkpt lat="46.044406" lon="7.760082"><ele>2579.5</ele><time>2026-07-12T06:09:00Z</time></trkpt><trkpt lat="46.044406" lon="7.758629"><ele>2581.5</ele><time>2026-07-12T06:09:10Z</time></trkpt><trkpt lat="46.044375" lon="7.757182"><ele>2581.3</ele><time>2026-07-12T06:09:20Z</time></trkpt><trkpt lat="46.044315" lon="7.755744"><ele>2578.6</ele><time>2026-07-12T06:09:30Z</time></trkpt><trkpt lat="46.044226" lon="7.754315"><ele>2573.4</ele><time>2026-07-12T06:09:40Z</time></trkpt><trkpt lat="46.044111" lon="7.752900"><ele>2565.5</ele><time>2026-07-12T06:09:50Z</time></trkpt><trkpt lat="46.043971" lon="7.751500"><ele>2554.9</ele><time>2026-07-12T06:10:00Z</time></trkpt><trkpt lat="46.043809" lon="7.750117"><ele>2541.5</ele><time>2026-07-12T06:10:10Z</time></trkpt><trkpt lat="46.043625" lon="7.748752"><ele>2525.3</ele><time>2026-07-12T06:10:20Z</time></trkpt><trkpt lat="46.043423" lon="7.747408"><ele>2506.3</ele><time>2026-07-12T06:10:30Z</time></trkpt><trkpt lat="46.043203" lon="7.746086"><ele>2484.6</ele><time>2026-07-12T06:10:40Z</time></trkpt><trkpt lat="46.042969" lon="7.744787"><ele>2460.2</ele><time>2026-07-12T06:10:50Z</time></trkpt><trkpt lat="46.042722" lon="7.743513"><ele>2433.3</ele><time>2026-07-12T06:11:00Z</time></trkpt><trkpt lat="46.042464" lon="7.742264"><ele>2404.0</ele><time>2026-07-12T06:11:10Z</time></trkpt><trkpt lat="46.042198" lon="7.741040"><ele>2372.6</ele><time>2026-07-12T06:11:20Z</time></trkpt><trkpt lat="46.041925" lon="7.739844"><ele>2339.2</ele><time>2026-07-12T06:11:30Z</time></trkpt><trkpt lat="46.041648" lon="7.738674"><ele>2304.1</ele><time>2026-07-12T06:11:40Z</time></trkpt><trkpt lat="46.041369" lon="7.737532"><ele>2267.6</ele><time>2026-07-12T06:11:50Z</time></trkpt><trkpt lat="46.041089" lon="7.736417"><ele>2230.0</ele><time>2026-07-12T06:12:00Z</time></trkpt><trkpt lat="46.040812" lon="7.735328"><ele>2191.6</ele><time>2026-07-12T06:12:10Z</time></trkpt><trkpt lat="46.040538" lon="7.734267"><ele>2152.8</ele><time>2026-07-12T06:12:20Z</time></trkpt><trkpt lat="46.040271" lon="7.733231"><ele>2113.8</ele><time>2026-07-12T06:12:30Z</time></trkpt><trkpt lat="46.040010" lon="7.732221"><ele>2075.2</ele><time>2026-07-12T06:12:40Z</time></trkpt><trkpt lat="46.039760" lon="7.731235"><ele>2037.1</ele><time>2026-07-12T06:12:50Z</time></trkpt><trkpt lat="46.039521" lon="7.730273"><ele>2000.1</ele><time>2026-07-12T06:13:00Z</time></trkpt><trkpt lat="46.039294" lon="7.729333"><ele>1964.5</ele><time>2026-07-12T06:13:10Z</time></trkpt><trkpt lat="46.039082" lon="7.728413"><ele>1930.6</ele><time>2026-07-12T06:13:20Z</time></trkpt><trkpt lat="46.038886" lon="7.727514"><ele>1898.7</ele><time>2026-07-12T06:13:30Z</time></trkpt><trkpt lat="46.038706" lon="7.726632"><ele>1869.3</ele><time>2026-07-12T06:13:40Z</time></trkpt><trkpt lat="46.038545" lon="7.725766"><ele>1842.6</ele><time>2026-07-12T06:13:50Z</time></trkpt><trkpt lat="46.038403" lon="7.724915"><ele>1818.8</ele><time>2026-07-12T06:14:00Z</time></trkpt><trkpt lat="46.038282" lon="7.724076"><ele>1798.2</ele><time>2026-07-12T06:14:10Z</time></trkpt><trkpt lat="46.038181" lon="7.723248"><ele>1781.1</ele><time>2026-07-12T06:14:20Z</time></trkpt><trkpt lat="46.038102" lon="7.722429"><ele>1767.6</ele><time>2026-07-12T06:14:30Z</time></trkpt><trkpt lat="46.038046" lon="7.721616"><ele>1757.9</ele><time>2026-07-12T06:14:40Z</time></trkpt><trkpt lat="46.038011" lon="7.720807"><ele>1752.0</ele><time>2026-07-12T06:14:50Z</time></trkpt><trkpt lat="46.038000" lon="7.720000"><ele>1750.0</ele><time>2026-07-12T06:15:00Z</time></trkpt><trkpt lat="46.038011" lon="7.719193"><ele>1752.0</ele><time>2026-07-12T06:15:10Z</time></trkpt><trkpt lat="46.038046" lon="7.718384"><ele>1757.9</ele><time>2026-07-12T06:15:20Z</time></trkpt><trkpt lat="46.038102" lon="7.717571"><ele>1767.6</ele><time>2026-07-12T06:15:30Z</time></trkpt><trkpt lat="46.038181" lon="7.716752"><ele>1781.1</ele><time>2026-07-12T06:15:40Z</time></trkpt><trkpt lat="46.038282" lon="7.715924"><ele>1798.2</ele><time>2026-07-12T06:15:50Z</time></trkpt><trkpt lat="46.038403" lon="7.715085"><ele>1818.8</ele><time>2026-07-12T06:16:00Z</time></trkpt><trkpt lat="46.038545" lon="7.714234"><ele>1842.6</ele><time>2026-07-12T06:16:10Z</time></trkpt><trkpt lat="46.038706" lon="7.713368"><ele>1869.3</ele><time>2026-07-12T06:16:20Z</time></trkpt><trkpt lat="46.038886" lon="7.712486"><ele>1898.7</ele><time>2026-07-12T06:16:30Z</time></trkpt><trkpt lat="46.039082" lon="7.711587"><ele>1930.6</ele><time>2026-07-12T06:16:40Z</time></trkpt><trkpt lat="46.039294" lon="7.710667"><ele>1964.5</ele><time>2026-07-12T06:16:50Z</time></trkpt><trkpt lat="46.039521" lon="7.709727"><ele>2000.1</ele><time>2026-07-12T06:17:00Z</time></trkpt><trkpt lat="46.039760" lon="7.708765"><ele>2037.1</ele><time>2026-07-12T06:17:10Z</time></trkpt><trkpt lat="46.040010" lon="7.707779"><ele>2075.2</ele><time>2026-07-12T06:17:20Z</time></trkpt><trkpt lat="46.040271" lon="7.706769"><ele>2113.8</ele><time>2026-07-12T06:17:30Z</time></trkpt><trkpt lat="46.040538" lon="7.705733"><ele>2152.8</ele><time>2026-07-12T06:17:40Z</time></trkpt><trkpt lat="46.040812" lon="7.704672"><ele>2191.6</ele><time>2026-07-12T06:17:50Z</time></trkpt><trkpt lat="46.041089" lon="7.703583"><ele>2230.0</ele><time>2026-07-12T06:18:00Z</time></trkpt><trkpt lat="46.041369" lon="7.702468"><ele>2267.6</ele><time>2026-07-12T06:18:10Z</time></trkpt><trkpt lat="46.041648" lon="7.701326"><ele>2304.1</ele><time>2026-07-12T06:18:20Z</time></trkpt><trkpt lat="46.041925" lon="7.700156"><ele>2339.2</ele><time>2026-07-12T06:18:30Z</time></trkpt><trkpt lat="46.042198" lon="7.698960"><ele>2372.6</ele><time>2026-07-12T06:18:40Z</time></trkpt><trkpt lat="46.042464" lon="7.697736"><ele>2404.0</ele><time>2026-07-12T06:18:50Z</time></trkpt><trkpt lat="46.042722" lon="7.696487"><ele>2433.3</ele><time>2026-07-12T06:19:00Z</time></trkpt><trkpt lat="46.042969" lon="7.695213"><ele>2460.2</ele><time>2026-07-12T06:19:10Z</time></trkpt><trkpt lat="46.043203" lon="7.693914"><ele>2484.6</ele><time>2026-07-12T06:19:20Z</time></trkpt><trkpt lat="46.043423" lon="7.692592"><ele>2506.3</ele><time>2026-07-12T06:19:30Z</time></trkpt><trkpt lat="46.043625" lon="7.691248"><ele>2525.3</ele><time>2026-07-12T06:19:40Z</time></trkpt><trkpt lat="46.043809" lon="7.689883"><ele>2541.5</ele><time>2026-07-12T06:19:50Z</time></trkpt><trkpt lat="46.043971" lon="7.688500"><ele>2554.9</ele><time>2026-07-12T06:20:00Z</time></trkpt><trkpt lat="46.044111" lon="7.687100"><ele>2565.5</ele><time>2026-07-12T06:20:10Z</time></trkpt><trkpt lat="46.044226" lon="7.685685"><ele>2573.4</ele><time>2026-07-12T06:20:20Z</time></trkpt><trkpt lat="46.044315" lon="7.684256"><ele>2578.6</ele><time>2026-07-12T06:20:30Z</time></trkpt><trkpt lat="46.044375" lon="7.682818"><ele>2581.3</ele><time>2026-07-12T06:20:40Z</time></trkpt><trkpt lat="46.044406" lon="7.681371"><ele>2581.5</ele><time>2026-07-12T06:20:50Z</time></trkpt><trkpt lat="46.044406" lon="7.679918"><ele>2579.5</ele><time>2026-07-12T06:21:00Z</time></trkpt><trkpt lat="46.044373" lon="7.678462"><ele>2575.4</ele><time>2026-07-12T06:21:10Z</time></trkpt><trkpt lat="46.044307" lon="7.677006"><ele>2569.5</ele><time>2026-07-12T06:21:20Z</time></trkpt><trkpt lat="46.044205" lon="7.675553"><ele>2561.9</ele><time>2026-07-12T06:21:30Z</time></trkpt><trkpt lat="46.044068" lon="7.674105"><ele>2552.8</ele><time>2026-07-12T06:21:40Z</time></trkpt><trkpt lat="46.043894" lon="7.672665"><ele>2542.6</ele><time>2026-07-12T06:21:50Z</time></trkpt><trkpt lat="46.043683" lon="7.671237"><ele>2531.3</ele><time>2026-07-12T06:22:00Z</time></trkpt><trkpt lat="46.043434" lon="7.669824"><ele>2519.3</ele><time>2026-07-12T06:22:10Z</time></trkpt><trkpt lat="46.043146" lon="7.668428"><ele>2506.8</ele><time>2026-07-12T06:22:20Z</time></trkpt><trkpt lat="46.042820" lon="7.667052"><ele>2493.9</ele><time>2026-07-12T06:22:30Z</time></trkpt><trkpt lat="46.042454" lon="7.665701"><ele>2480.9</ele><time>2026-07-12T06:22:40Z</time></trkpt><trkpt lat="46.042050" lon="7.664376"><ele>2468.0</ele><time>2026-07-12T06:22:50Z</time></trkpt><trkpt lat="46.041607" lon="7.663081"><ele>2455.3</ele><time>2026-07-12T06:23:00Z</time></trkpt><trkpt lat="46.041125" lon="7.661820"><ele>2443.0</ele><time>2026-07-12T06:23:10Z</time></trkpt><trkpt lat="46.040605" lon="7.660594"><ele>2431.2</ele><time>2026-07-12T06:23:20Z</time></trkpt><trkpt lat="46.040048" lon="7.659407"><ele>2419.9</ele><time>2026-07-12T06:23:30Z</time></trkpt><trkpt lat="46.039454" lon="7.658261"><ele>2409.4</ele><time>2026-07-12T06:23:40Z</time></trkpt><trkpt lat="46.038824" lon="7.657160"><ele>2399.6</ele><time>2026-07-12T06:23:50Z</time></trkpt><trkpt lat="46.038159" lon="7.656106"><ele>2390.5</ele><time>2026-07-12T06:24:00Z</time></trkpt><trkpt lat="46.037459" lon="7.655101"><ele>2382.2</ele><time>2026-07-12T06:24:10Z</time></trkpt><trkpt lat="46.036727" lon="7.654147"><ele>2374.6</ele><time>2026-07-12T06:24:20Z</time></trkpt><trkpt lat="46.035964" lon="7.653248"><ele>2367.6</ele><time>2026-07-12T06:24:30Z</time></trkpt><trkpt lat="46.035171" lon="7.652404"><ele>2361.3</ele><time>2026-07-12T06:24:40Z</time></trkpt><trkpt lat="46.034349" lon="7.651618"><ele>2355.4</ele><time>2026-07-12T06:24:50Z</time></trkpt><trkpt lat="46.033500" lon="7.650891"><ele>2350.0</ele><time>2026-07-12T06:25:00Z</time></trkpt><trkpt lat="46.032626" lon="7.650225"><ele>2344.8</ele><time>2026-07-12T06:25:10Z</time></trkpt><trkpt lat="46.031729" lon="7.649622"><ele>2339.8</ele><time>2026-07-12T06:25:20Z</time></trkpt><trkpt lat="46.030810" lon="7.649082"><ele>2334.7</ele><time>2026-07-12T06:25:30Z</time></trkpt><trkpt lat="46.029872" lon="7.648606"><ele>2329.4</ele><time>2026-07-12T06:25:40Z</time></trkpt><trkpt lat="46.028916" lon="7.648195"><ele>2323.9</ele><time>2026-07-12T06:25:50Z</time></trkpt><trkpt lat="46.027945" lon="7.647850"><ele>2317.8</ele><time>2026-07-12T06:26:00Z</time></trkpt><trkpt lat="46.026960" lon="7.647571"><ele>2311.1</ele><time>2026-07-12T06:26:10Z</time></trkpt><trkpt lat="46.025964" lon="7.647357"><ele>2303.5</ele><time>2026-07-12T06:26:20Z</time></trkpt><trkpt lat="46.024958" lon="7.647210"><ele>2295.1</ele><time>2026-07-12T06:26:30Z</time></trkpt><trkpt lat="46.023945" lon="7.647128"><ele>2285.6</ele><time>2026-07-12T06:26:40Z</time></trkpt><trkpt lat="46.022927" lon="7.647110"><ele>2275.0</ele><time>2026-07-12T06:26:50Z</time></trkpt><trkpt lat="46.021906" lon="7.647157"><ele>2263.2</ele><time>2026-07-12T06:27:00Z</time></trkpt><trkpt lat="46.020883" lon="7.647267"><ele>2250.1</ele><time>2026-07-12T06:27:10Z</time></trkpt><trkpt lat="46.019862" lon="7.647439"><ele>2235.6</ele><time>2026-07-12T06:27:20Z</time></trkpt><trkpt lat="46.018843" lon="7.647672"><ele>2219.9</ele><time>2026-07-12T06:27:30Z</time></trkpt><trkpt lat="46.017829" lon="7.647964"><ele>2202.8</ele><time>2026-07-12T06:27:40Z</time></trkpt><trkpt lat="46.016822" lon="7.648313"><ele>2184.5</ele><time>2026-07-12T06:27:50Z</time></trkpt><trkpt lat="46.015823" lon="7.648718"><ele>2165.0</ele><time>2026-07-12T06:28:00Z</time></trkpt><trkpt lat="46.014833" lon="7.649176"><ele>2144.4</ele><time>2026-07-12T06:28:10Z</time></trkpt><trkpt lat="46.013856" lon="7.649685"><ele>2122.8</ele><time>2026-07-12T06:28:20Z</time></trkpt><trkpt lat="46.012892" lon="7.650242"><ele>2100.5</ele><time>2026-07-12T06:28:30Z</time></trkpt><trkpt lat="46.011942" lon="7.650846"><ele>2077.5</ele><time>2026-07-12T06:28:40Z</time></trkpt><trkpt lat="46.011008" lon="7.651494"><ele>2054.2</ele><time>2026-07-12T06:28:50Z</time></trkpt><trkpt lat="46.010091" lon="7.652182"><ele>2030.6</ele><time>2026-07-12T06:29:00Z</time></trkpt><trkpt lat="46.009193" lon="7.652908"><ele>2007.1</ele><time>2026-07-12T06:29:10Z</time></trkpt><trkpt lat="46.008313" lon="7.653669"><ele>1984.0</ele><time>2026-07-12T06:29:20Z</time></trkpt><trkpt lat="46.007453" lon="7.654462"><ele>1961.4</ele><time>2026-07-12T06:29:30Z</time></trkpt><trkpt lat="46.006614" lon="7.655283"><ele>1939.7</ele><time>2026-07-12T06:29:40Z</time></trkpt><trkpt lat="46.005796" lon="7.656130"><ele>1919.1</ele><time>2026-07-12T06:29:50Z</time></trkpt><trkpt lat="46.005000" lon="7.657000"><ele>1900.0</ele><time>2026-07-12T06:30:00Z</time></trkpt><trkpt lat="46.004226" lon="7.657889"><ele>1882.6</ele><time>2026-07-12T06:30:10Z</time></trkpt><trkpt lat="46.003473" lon="7.658793"><ele>1867.1</ele><time>2026-07-12T06:30:20Z</time></trkpt><trkpt lat="46.002743" lon="7.659711"><ele>1853.9</ele><time>2026-07-12T06:30:30Z</time></trkpt><trkpt lat="46.002035" lon="7.660638"><ele>1843.1</ele><time>2026-07-12T06:30:40Z</time></trkpt><trkpt lat="46.001349" lon="7.661571"><ele>1835.1</ele><time>2026-07-12T06:30:50Z</time></trkpt><trkpt lat="46.000684" lon="7.662508"><ele>1829.9</ele><time>2026-07-12T06:31:00Z</time></trkpt><trkpt lat="46.000040" lon="7.663445"><ele>1827.8</ele><time>2026-07-12T06:31:10Z</time></trkpt><trkpt lat="45.999416" lon="7.664380"><ele>1828.8</ele><time>2026-07-12T06:31:20Z</time></trkpt><trkpt lat="45.998813" lon="7.665309"><ele>1833.2</ele><time>2026-07-12T06:31:30Z</time></trkpt><trkpt lat="45.998228" lon="7.666229"><ele>1840.9</ele><time>2026-07-12T06:31:40Z</time></trkpt><trkpt lat="45.997661" lon="7.667139"><ele>1852.1</ele><time>2026-07-12T06:31:50Z</time></trkpt><trkpt lat="45.997110" lon="7.668036"><ele>1866.6</ele><time>2026-07-12T06:32:00Z</time></trkpt><trkpt lat="45.996576" lon="7.668916"><ele>1884.5</ele><time>2026-07-12T06:32:10Z</time></trkpt><trkpt lat="45.996056" lon="7.669779"><ele>1905.7</ele><time>2026-07-12T06:32:20Z</time></trkpt><trkpt lat="45.995549" lon="7.670621"><ele>1930.1</ele><time>2026-07-12T06:32:30Z</time></trkpt><trkpt lat="45.995054" lon="7.671442"><ele>1957.5</ele><time>2026-07-12T06:32:40Z</time></trkpt><trkpt lat="45.994570" lon="7.672238"><ele>1987.7</ele><time>2026-07-12T06:32:50Z</time></trkpt><trkpt lat="45.994094" lon="7.673010"><ele>2020.5</ele><time>2026-07-12T06:33:00Z</time></trkpt><trkpt lat="45.993626" lon="7.673754"><ele>2055.6</ele><time>2026-07-12T06:33:10Z</time></trkpt><trkpt lat="45.993163" lon="7.674471"><ele>2092.8</ele><time>2026-07-12T06:33:20Z</time></trkpt><trkpt lat="45.992705" lon="7.675159"><ele>2131.7</ele><time>2026-07-12T06:33:30Z</time></trkpt><trkpt lat="45.992249" lon="7.675817"><ele>2172.0</ele><time>2026-07-12T06:33:40Z</time></trkpt><trkpt lat="45.991794" lon="7.676446"><ele>2213.4</ele><time>2026-07-12T06:33:50Z</time></trkpt><trkpt lat="45.991339" lon="7.677043"><ele>2255.4</ele><time>2026-07-12T06:34:00Z</time></trkpt><trkpt lat="45.990881" lon="7.677610"><ele>2297.7</ele><time>2026-07-12T06:34:10Z</time></trkpt><trkpt lat="45.990419" lon="7.678146"><ele>2339.9</ele><time>2026-07-12T06:34:20Z</time></trkpt><trkpt lat="45.989951" lon="7.678651"><ele>2381.6</ele><time>2026-07-12T06:34:30Z</time></trkpt><trkpt lat="45.989477" lon="7.679127"><ele>2422.5</ele><time>2026-07-12T06:34:40Z</time></trkpt><trkpt lat="45.988993" lon="7.679572"><ele>2462.0</ele><time>2026-07-12T06:34:50Z</time></trkpt><trkpt lat="45.988500" lon="7.679990"><ele>2500.0</ele><time>2026-07-12T06:35:00Z</time></trkpt><trkpt lat="45.987995" lon="7.680379"><ele>2536.0</ele><time>2026-07-12T06:35:10Z</time></trkpt><trkpt lat="45.987478" lon="7.680742"><ele>2569.7</ele><time>2026-07-12T06:35:20Z</time></trkpt><trkpt lat="45.986946" lon="7.681080"><ele>2600.8</ele><time>2026-07-12T06:35:30Z</time></trkpt><trkpt lat="45.986400" lon="7.681394"><ele>2629.0</ele><time>2026-07-12T06:35:40Z</time></trkpt><trkpt lat="45.985837" lon="7.681686"><ele>2654.1</ele><time>2026-07-12T06:35:50Z</time></trkpt><trkpt lat="45.985258" lon="7.681958"><ele>2675.8</ele><time>2026-07-12T06:36:00Z</time></trkpt><trkpt lat="45.984660" lon="7.682212"><ele>2694.1</ele><time>2026-07-12T06:36:10Z</time></trkpt><trkpt lat="45.984044" lon="7.682449"><ele>2708.7</ele><time>2026-07-12T06:36:20Z</time></trkpt><trkpt lat="45.983409" lon="7.682673"><ele>2719.5</ele><time>2026-07-12T06:36:30Z</time></trkpt><trkpt lat="45.982755" lon="7.682885"><ele>2726.6</ele><time>2026-07-12T06:36:40Z</time></trkpt><trkpt lat="45.982080" lon="7.683087"><ele>2729.9</ele><time>2026-07-12T06:36:50Z</time></trkpt><trkpt lat="45.981385" lon="7.683282"><ele>2729.4</ele><time>2026-07-12T06:37:00Z</time></trkpt><trkpt lat="45.980670" lon="7.683473"><ele>2725.2</ele><time>2026-07-12T06:37:10Z</time></trkpt><trkpt lat="45.979935" lon="7.683662"><ele>2717.3</ele><time>2026-07-12T06:37:20Z</time></trkpt><trkpt lat="45.979180" lon="7.683852"><ele>2706.1</ele><time>2026-07-12T06:37:30Z</time></trkpt><trkpt lat="45.978406" lon="7.684045"><ele>2691.5</ele><time>2026-07-12T06:37:40Z</time></trkpt><trkpt lat="45.977612" lon="7.684245"><ele>2673.8</ele><time>2026-07-12T06:37:50Z</time></trkpt><trkpt lat="45.976800" lon="7.684452"><ele>2653.4</ele><time>2026-07-12T06:38:00Z</time></trkpt><trkpt lat="45.975971" lon="7.684671"><ele>2630.3</ele><time>2026-07-12T06:38:10Z</time></trkpt><trkpt lat="45.975124" lon="7.684904"><ele>2604.9</ele><time>2026-07-12T06:38:20Z</time></trkpt><trkpt lat="45.974262" lon="7.685153"><ele>2577.6</ele><time>2026-07-12T06:38:30Z</time></trkpt><trkpt lat="45.973386" lon="7.685420"><ele>2548.6</ele><time>2026-07-12T06:38:40Z</time></trkpt><trkpt lat="45.972496" lon="7.685709"><ele>2518.2</ele><time>2026-07-12T06:38:50Z</time></trkpt><trkpt lat="45.971594" lon="7.686021"><ele>2486.8</ele><time>2026-07-12T06:39:00Z</time></trkpt><trkpt lat="45.970682" lon="7.686359"><ele>2454.7</ele><time>2026-07-12T06:39:10Z</time></trkpt><trkpt lat="45.969762" lon="7.686724"><ele>2422.3</ele><time>2026-07-12T06:39:20Z</time></trkpt><trkpt lat="45.968834" lon="7.687119"><ele>2389.8</ele><time>2026-07-12T06:39:30Z</time></trkpt><trkpt lat="45.967902" lon="7.687546"><ele>2357.6</ele><time>2026-07-12T06:39:40Z</time></trkpt><trkpt lat="45.966966" lon="7.688005"><ele>2325.9</ele><time>2026-07-12T06:39:50Z</time></trkpt><trkpt lat="45.966029" lon="7.688500"><ele>2295.1</ele><time>2026-07-12T06:40:00Z</time></trkpt><trkpt lat="45.965093" lon="7.689031"><ele>2265.4</ele><time>2026-07-12T06:40:10Z</time></trkpt><trkpt lat="45.964160" lon="7.689599"><ele>2236.9</ele><time>2026-07-12T06:40:20Z</time></trkpt><trkpt lat="45.963232" lon="7.690205"><ele>2210.0</ele><time>2026-07-12T06:40:30Z</time></trkpt><trkpt lat="45.962312" lon="7.690851"><ele>2184.8</ele><time>2026-07-12T06:40:40Z</time></trkpt><trkpt lat="45.961401" lon="7.691537"><ele>2161.3</ele><time>2026-07-12T06:40:50Z</time></trkpt><trkpt lat="45.960503" lon="7.692264"><ele>2139.9</ele><time>2026-07-12T06:41:00Z</time></trkpt><trkpt lat="45.959619" lon="7.693032"><ele>2120.4</ele><time>2026-07-12T06:41:10Z</time></trkpt><trkpt lat="45.958751" lon="7.693840"><ele>2103.0</ele><time>2026-07-12T06:41:20Z</time></trkpt><trkpt lat="45.957903" lon="7.694690"><ele>2087.6</ele><time>2026-07-12T06:41:30Z</time></trkpt><trkpt lat="45.957076" lon="7.695580"><ele>2074.3</ele><time>2026-07-12T06:41:40Z</time></trkpt><trkpt lat="45.956272" lon="7.696510"><ele>2063.0</ele><time>2026-07-12T06:41:50Z</time></trkpt><trkpt lat="45.955494" lon="7.697480"><ele>2053.7</ele><time>2026-07-12T06:42:00Z</time></trkpt><trkpt lat="45.954744" lon="7.698489"><ele>2046.2</ele><time>2026-07-12T06:42:10Z</time></trkpt><trkpt lat="45.954025" lon="7.699536"><ele>2040.4</ele><time>2026-07-12T06:42:20Z</time></trkpt><trkpt lat="45.953337" lon="7.700620"><ele>2036.2</ele><time>2026-07-12T06:42:30Z</time></trkpt><trkpt lat="45.952684" lon="7.701739"><ele>2033.4</ele><time>2026-07-12T06:42:40Z</time></trkpt><trkpt lat="45.952067" lon="7.702891"><ele>2031.9</ele><time>2026-07-12T06:42:50Z</time></trkpt><trkpt lat="45.951487" lon="7.704076"><ele>2031.5</ele><time>2026-07-12T06:43:00Z</time></trkpt><trkpt lat="45.950948" lon="7.705291"><ele>2032.0</ele><time>2026-07-12T06:43:10Z</time></trkpt><trkpt lat="45.950449" lon="7.706534"><ele>2033.2</ele><time>2026-07-12T06:43:20Z</time></trkpt><trkpt lat="45.949994" lon="7.707803"><ele>2034.9</ele><time>2026-07-12T06:43:30Z</time></trkpt><trkpt lat="45.949582" lon="7.709096"><ele>2037.1</ele><time>2026-07-12T06:43:40Z</time></trkpt><trkpt lat="45.949216" lon="7.710411"><ele>2039.4</ele><time>2026-07-12T06:43:50Z</time></trkpt><trkpt lat="45.948896" lon="7.711745"><ele>2041.7</ele><time>2026-07-12T06:44:00Z</time></trkpt><trkpt lat="45.948624" lon="7.713095"><ele>2044.0</ele><time>2026-07-12T06:44:10Z</time></trkpt><trkpt lat="45.948400" lon="7.714459"><ele>2046.0</ele><time>2026-07-12T06:44:20Z</time></trkpt><trkpt lat="45.948226" lon="7.715834"><ele>2047.7</ele><time>2026-07-12T06:44:30Z</time></trkpt><trkpt lat="45.948100" lon="7.717218"><ele>2049.0</ele><time>2026-07-12T06:44:40Z</time></trkpt><trkpt lat="45.948025" lon="7.718608"><ele>2049.7</ele><time>2026-07-12T06:44:50Z</time></trkpt><trkpt lat="45.948000" lon="7.720000"><ele>2050.0</ele><time>2026-07-12T06:45:00Z</time></trkpt><trkpt lat="45.948025" lon="7.721392"><ele>2049.7</ele><time>2026-07-12T06:45:10Z</time></trkpt><trkpt lat="45.948100" lon="7.722782"><ele>2049.0</ele><time>2026-07-12T06:45:20Z</time></trkpt><trkpt lat="45.948226" lon="7.724166"><ele>2047.7</ele><time>2026-07-12T06:45:30Z</time></trkpt><trkpt lat="45.948400" lon="7.725541"><ele>2046.0</ele><time>2026-07-12T06:45:40Z</time></trkpt><trkpt lat="45.948624" lon="7.726905"><ele>2044.0</ele><time>2026-07-12T06:45:50Z</time></trkpt><trkpt lat="45.948896" lon="7.728255"><ele>2041.7</ele><time>2026-07-12T06:46:00Z</time></trkpt><trkpt lat="45.949216" lon="7.729589"><ele>2039.4</ele><time>2026-07-12T06:46:10Z</time></trkpt><trkpt lat="45.949582" lon="7.730904"><ele>2037.1</ele><time>2026-07-12T06:46:20Z</time></trkpt><trkpt lat="45.949994" lon="7.732197"><ele>2034.9</ele><time>2026-07-12T06:46:30Z</time></trkpt><trkpt lat="45.950449" lon="7.733466"><ele>2033.2</ele><time>2026-07-12T06:46:40Z</time></trkpt><trkpt lat="45.950948" lon="7.734709"><ele>2032.0</ele><time>2026-07-12T06:46:50Z</time></trkpt><trkpt lat="45.951487" lon="7.735924"><ele>2031.5</ele><time>2026-07-12T06:47:00Z</time></trkpt><trkpt lat="45.952067" lon="7.737109"><ele>2031.9</ele><time>2026-07-12T06:47:10Z</time></trkpt><trkpt lat="45.952684" lon="7.738261"><ele>2033.4</ele><time>2026-07-12T06:47:20Z</time></trkpt><trkpt lat="45.953337" lon="7.739380"><ele>2036.2</ele><time>2026-07-12T06:47:30Z</time></trkpt><trkpt lat="45.954025" lon="7.740464"><ele>2040.4</ele><time>2026-07-12T06:47:40Z</time></trkpt><trkpt lat="45.954744" lon="7.741511"><ele>2046.2</ele><time>2026-07-12T06:47:50Z</time></trkpt><trkpt lat="45.955494" lon="7.742520"><ele>2053.7</ele><time>2026-07-12T06:48:00Z</time></trkpt><trkpt lat="45.956272" lon="7.743490"><ele>2063.0</ele><time>2026-07-12T06:48:10Z</time></trkpt><trkpt lat="45.957076" lon="7.744420"><ele>2074.3</ele><time>2026-07-12T06:48:20Z</time></trkpt><trkpt lat="45.957903" lon="7.745310"><ele>2087.6</ele><time>2026-07-12T06:48:30Z</time></trkpt><trkpt lat="45.958751" lon="7.746160"><ele>2103.0</ele><time>2026-07-12T06:48:40Z</time></trkpt><trkpt lat="45.959619" lon="7.746968"><ele>2120.4</ele><time>2026-07-12T06:48:50Z</time></trkpt><trkpt lat="45.960503" lon="7.747736"><ele>2139.9</ele><time>2026-07-12T06:49:00Z</time></trkpt><trkpt lat="45.961401" lon="7.748463"><ele>2161.3</ele><time>2026-07-12T06:49:10Z</time></trkpt><trkpt lat="45.962312" lon="7.749149"><ele>2184.8</ele><time>2026-07-12T06:49:20Z</time></trkpt><trkpt lat="45.963232" lon="7.749795"><ele>2210.0</ele><time>2026-07-12T06:49:30Z</time></trkpt><trkpt lat="45.964160" lon="7.750401"><ele>2236.9</ele><time>2026-07-12T06:49:40Z</time></trkpt><trkpt lat="45.965093" lon="7.750969"><ele>2265.4</ele><time>2026-07-12T06:49:50Z</time></trkpt><trkpt lat="45.966029" lon="7.751500"><ele>2295.1</ele><time>2026-07-12T06:50:00Z</time></trkpt><trkpt lat="45.966966" lon="7.751995"><ele>2325.9</ele><time>2026-07-12T06:50:10Z</time></trkpt><trkpt lat="45.967902" lon="7.752454"><ele>2357.6</ele><time>2026-07-12T06:50:20Z</time></trkpt><trkpt lat="45.968834" lon="7.752881"><ele>2389.8</ele><time>2026-07-12T06:50:30Z</time></trkpt><trkpt lat="45.969762" lon="7.753276"><ele>2422.3</ele><time>2026-07-12T06:50:40Z</time></trkpt><trkpt lat="45.970682" lon="7.753641"><ele>2454.7</ele><time>2026-07-12T06:50:50Z</time></trkpt><trkpt lat="45.971594" lon="7.753979"><ele>2486.8</ele><time>2026-07-12T06:51:00Z</time></trkpt><trkpt lat="45.972496" lon="7.754291"><ele>2518.2</ele><time>2026-07-12T06:51:10Z</time></trkpt><trkpt lat="45.973386" lon="7.754580"><ele>2548.6</ele><time>2026-07-12T06:51:20Z</time></trkpt><trkpt lat="45.974262" lon="7.754847"><ele>2577.6</ele><time>2026-07-12T06:51:30Z</time></trkpt><trkpt lat="45.975124" lon="7.755096"><ele>2604.9</ele><time>2026-07-12T06:51:40Z</time></trkpt><trkpt lat="45.975971" lon="7.755329"><ele>2630.3</ele><time>2026-07-12T06:51:50Z</time></trkpt><trkpt lat="45.976800" lon="7.755548"><ele>2653.4</ele><time>2026-07-12T06:52:00Z</time></trkpt><trkpt lat="45.977612" lon="7.755755"><ele>2673.8</ele><time>2026-07-12T06:52:10Z</time></trkpt><trkpt lat="45.978406" lon="7.755955"><ele>2691.5</ele><time>2026-07-12T06:52:20Z</time></trkpt><trkpt lat="45.979180" lon="7.756148"><ele>2706.1</ele><time>2026-07-12T06:52:30Z</time></trkpt><trkpt lat="45.979935" lon="7.756338"><ele>2717.3</ele><time>2026-07-12T06:52:40Z</time></trkpt><trkpt lat="45.980670" lon="7.756527"><ele>2725.2</ele><time>2026-07-12T06:52:50Z</time></trkpt><trkpt lat="45.981385" lon="7.756718"><ele>2729.4</ele><time>2026-07-12T06:53:00Z</time></trkpt><trkpt lat="45.982080" lon="7.756913"><ele>2729.9</ele><time>2026-07-12T06:53:10Z</time></trkpt><trkpt lat="45.982755" lon="7.757115"><ele>2726.6</ele><time>2026-07-12T06:53:20Z</time></trkpt><trkpt lat="45.983409" lon="7.757327"><ele>2719.5</ele><time>2026-07-12T06:53:30Z</time></trkpt><trkpt lat="45.984044" lon="7.757551"><ele>2708.7</ele><time>2026-07-12T06:53:40Z</time></trkpt><trkpt lat="45.984660" lon="7.757788"><ele>2694.1</ele><time>2026-07-12T06:53:50Z</time></trkpt><trkpt lat="45.985258" lon="7.758042"><ele>2675.8</ele><time>2026-07-12T06:54:00Z</time></trkpt><trkpt lat="45.985837" lon="7.758314"><ele>2654.1</ele><time>2026-07-12T06:54:10Z</time></trkpt><trkpt lat="45.986400" lon="7.758606"><ele>2629.0</ele><time>2026-07-12T06:54:20Z</time></trkpt><trkpt lat="45.986946" lon="7.758920"><ele>2600.8</ele><time>2026-07-12T06:54:30Z</time></trkpt><trkpt lat="45.987478" lon="7.759258"><ele>2569.7</ele><time>2026-07-12T06:54:40Z</time></trkpt><trkpt lat="45.987995" lon="7.759621"><ele>2536.0</ele><time>2026-07-12T06:54:50Z</time></trkpt><trkpt lat="45.988500" lon="7.760010"><ele>2500.0</ele><time>2026-07-12T06:55:00Z</time></trkpt><trkpt lat="45.988993" lon="7.760428"><ele>2462.0</ele><time>2026-07-12T06:55:10Z</time></trkpt><trkpt lat="45.989477" lon="7.760873"><ele>2422.5</ele><time>2026-07-12T06:55:20Z</time></trkpt><trkpt lat="45.989951" lon="7.761349"><ele>2381.6</ele><time>2026-07-12T06:55:30Z</time></trkpt><trkpt lat="45.990419" lon="7.761854"><ele>2339.9</ele><time>2026-07-12T06:55:40Z</time></trkpt><trkpt lat="45.990881" lon="7.762390"><ele>2297.7</ele><time>2026-07-12T06:55:50Z</time></trkpt><trkpt lat="45.991339" lon="7.762957"><ele>2255.4</ele><time>2026-07-12T06:56:00Z</time></trkpt><trkpt lat="45.991794" lon="7.763554"><ele>2213.4</ele><time>2026-07-12T06:56:10Z</time></trkpt><trkpt lat="45.992249" lon="7.764183"><ele>2172.0</ele><time>2026-07-12T06:56:20Z</time></trkpt><trkpt lat="45.992705" lon="7.764841"><ele>2131.7</ele><time>2026-07-12T06:56:30Z</time></trkpt><trkpt lat="45.993163" lon="7.765529"><ele>2092.8</ele><time>2026-07-12T06:56:40Z</time></trkpt><trkpt lat="45.993626" lon="7.766246"><ele>2055.6</ele><time>2026-07-12T06:56:50Z</time></trkpt><trkpt lat="45.994094" lon="7.766990"><ele>2020.5</ele><time>2026-07-12T06:57:00Z</time></trkpt><trkpt lat="45.994570" lon="7.767762"><ele>1987.7</ele><time>2026-07-12T06:57:10Z</time></trkpt><trkpt lat="45.995054" lon="7.768558"><ele>1957.5</ele><time>2026-07-12T06:57:20Z</time></trkpt><trkpt lat="45.995549" lon="7.769379"><ele>1930.1</ele><time>2026-07-12T06:57:30Z</time></trkpt><trkpt lat="45.996056" lon="7.770221"><ele>1905.7</ele><time>2026-07-12T06:57:40Z</time></trkpt><trkpt lat="45.996576" lon="7.771084"><ele>1884.5</ele><time>2026-07-12T06:57:50Z</time></trkpt><trkpt lat="45.997110" lon="7.771964"><ele>1866.6</ele><time>2026-07-12T06:58:00Z</time></trkpt><trkpt lat="45.997661" lon="7.772861"><ele>1852.1</ele><time>2026-07-12T06:58:10Z</time></trkpt><trkpt lat="45.998228" lon="7.773771"><ele>1840.9</ele><time>2026-07-12T06:58:20Z</time></trkpt><trkpt lat="45.998813" lon="7.774691"><ele>1833.2</ele><time>2026-07-12T06:58:30Z</time></trkpt><trkpt lat="45.999416" lon="7.775620"><ele>1828.8</ele><time>2026-07-12T06:58:40Z</time></trkpt><trkpt lat="46.000040" lon="7.776555"><ele>1827.8</ele><time>2026-07-12T06:58:50Z</time></trkpt><trkpt lat="46.000684" lon="7.777492"><ele>1829.9</ele><time>2026-07-12T06:59:00Z</time></trkpt><trkpt lat="46.001349" lon="7.778429"><ele>1835.1</ele><time>2026-07-12T06:59:10Z</time></trkpt><trkpt lat="46.002035" lon="7.779362"><ele>1843.1</ele><time>2026-07-12T06:59:20Z</time></trkpt><trkpt lat="46.002743" lon="7.780289"><ele>1853.9</ele><time>2026-07-12T06:59:30Z</time></trkpt><trkpt lat="46.003473" lon="7.781207"><ele>1867.1</ele><time>2026-07-12T06:59:40Z</time></trkpt><trkpt lat="46.004226" lon="7.782111"><ele>1882.6</ele><time>2026-07-12T06:59:50Z</time></trkpt><trkpt lat="46.005000" lon="7.783000"><ele>1900.0</ele><time>2026-07-12T07:00:00Z</time></trkpt></trkseg></trk></gpx>